0 FENGYUN 1C DEB
1 31383U 99025BSP 13282.89946657  .00000988  00000-0  70010-3 0  8112
2 31383 099.1366 251.3972 0119234 290.7815 124.8033 13.96827551331280
0 FENGYUN 1C DEB
1 31383U 99025BSP 13289.13118252  .00001447  00000-0  10110-2 0  8135
2 31383 099.1382 257.5891 0118798 273.6310 141.7139 13.96844106332157
0 FENGYUN 1C DEB
1 31383U 99025BSP 13291.13717713  .00001303  00000-0  91363-3 0  8147
2 31383 099.1388 259.5822 0118811 268.0867 149.1960 13.96849952332439
0 FENGYUN 1C DEB
1 31383U 99025BSP 13294.14610191  .00001202  00000-0  84486-3 0  8150
2 31383 099.1391 262.5726 0118792 259.7713 160.1679 13.96860067332851
0 FENGYUN 1C DEB
1 31383U 99025BSP 13296.15112563  .00001099  00000-0  77501-3 0  8168
2 31383 099.1393 264.5652 0118798 254.2211 162.8907 13.96866103333134
